     3.02           N: GNSS NAV DATA    G: GPS NAV DATA     RINEX VERSION / TYPE
NetR9 5.01          Receiver Operator   20250228 032749 UTC PGM / RUN BY / DATE
GPSA    .2608D-07   .7451D-08  -.1192D-06   .1192D-06       IONOSPHERIC CORR
GPSB    .1331D+06  -.1638D+05   .0000D+00  -.5898D+06       IONOSPHERIC CORR
GPUT   .1862645149D-08  .710542736D-14  61440 2356          TIME SYSTEM CORR
    18    18  2441     7                                    LEAP SECONDS
                                                            END OF HEADER
G30 2025 02 28 03 59 44 -.205897726119D-03  .886757334229D-11  .000000000000D+00
      .830000000000D+02 -.307812500000D+02  .460304887832D-08 -.220444056894D+01
     -.173225998878D-05  .745533313602D-02  .139158219099D-04  .515373674011D+04
      .446384000000D+06  .391155481339D-07  .271901664173D+00 -.726431608200D-07
      .936149741457D+00  .959062500000D+02 -.242353240896D+01 -.791818696713D-08
      .238938524177D-09  .100000000000D+01  .235500000000D+04  .000000000000D+00
      .240000000000D+01  .000000000000D+00  .372529029846D-08  .830000000000D+02
      .444468000000D+06  .400000000000D+01
G27 2025 02 28 03 59 44 -.306782312691D-04  .682121026330D-12  .000000000000D+00
      .290000000000D+02 -.593750000000D+02  .490806158332D-08  .849366329368D+00
     -.310689210892D-05  .134433327476D-01  .739842653275D-05  .515368170166D+04
      .446384000000D+06 -.121071934700D-06  .235965229603D+01  .119209289551D-06
      .957806144333D+00  .237562500000D+03  .823996168508D+00 -.846963850873D-08
     -.715029783861D-09  .100000000000D+01  .235500000000D+04  .000000000000D+00
      .240000000000D+01  .000000000000D+00  .186264514923D-08  .290000000000D+02
      .444468000000D+06  .400000000000D+01
G16 2025 02 28 04 00 00 -.424413010478D-04  .909494701773D-11  .000000000000D+00
      .112000000000D+03  .469687500000D+02  .507806866480D-08  .178446605845D+01
      .224262475967D-05  .145291212248D-01  .497139990330D-05  .515368960571D+04
      .446400000000D+06 -.253319740295D-06  .140925293958D+01 -.135973095894D-06
      .959690694421D+00  .287000000000D+03  .879107246185D+00 -.850964017496D-08
      .364300888880D-09  .100000000000D+01  .235500000000D+04  .000000000000D+00
      .240000000000D+01  .000000000000D+00 -.107102096081D-07  .112000000000D+03
      .439218000000D+06  .400000000000D+01
G14 2025 02 28 04 00 00  .606169924140D-03  .648014975013D-11  .000000000000D+00
      .112000000000D+03  .593437500000D+02  .521986028528D-08 -.285424744602D+01
      .310502946377D-05  .538257625885D-02  .551156699657D-05  .515370259476D+04
      .446400000000D+06 -.670552253723D-07  .134289749465D+01 -.558793544769D-07
      .943738351039D+00  .265593750000D+03 -.285688536088D+01 -.845749514576D-08
      .545737017852D-09  .100000000000D+01  .235500000000D+04  .000000000000D+00
      .240000000000D+01  .000000000000D+00 -.791624188423D-08  .112000000000D+03
      .443928000000D+06  .400000000000D+01
G09 2025 02 28 04 00 00  .582573469728D-03  .131876731757D-10  .000000000000D+00
      .910000000000D+02 -.115437500000D+03  .479984278986D-08  .131547594813D+01
     -.616535544395D-05  .304652028717D-02  .459887087345D-05  .515375787926D+04
      .446400000000D+06  .447034835815D-07 -.797060648730D+00 -.316649675369D-07
      .960894893975D+00  .288375000000D+03  .203495571191D+01 -.848642492223D-08
     -.577881213929D-09  .100000000000D+01  .235500000000D+04  .000000000000D+00
      .240000000000D+01  .000000000000D+00  .931322574615D-09  .910000000000D+02
      .444456000000D+06  .400000000000D+01
G08 2025 02 28 04 00 00  .487527810037D-03  .613908923697D-11  .000000000000D+00
      .180000000000D+03 -.630937500000D+02  .510485549486D-08  .727737228285D+00
     -.320188701153D-05  .105331030209D-01  .661611557007D-05  .515374875450D+04
      .446400000000D+06 -.558793544769D-08  .233080161899D+01  .212341547012D-06
      .948717024066D+00  .245406250000D+03  .430608042153D+00 -.850678291308D-08
     -.645026867958D-09  .100000000000D+01  .235500000000D+04  .000000000000D+00
      .240000000000D+01  .000000000000D+00  .465661287308D-08  .180000000000D+03
      .444456000000D+06  .400000000000D+01
G07 2025 02 28 04 00 00 -.147903338075D-04 -.909494701773D-12  .000000000000D+00
      .117000000000D+03 -.296562500000D+02  .418124559423D-08 -.201627629759D+01
     -.168755650520D-05  .192285841331D-01  .141132622957D-04  .515375317764D+04
      .446400000000D+06  .277534127235D-06  .275434397748D+00 -.141561031342D-06
      .950973181679D+00  .966875000000D+02 -.207241506790D+01 -.753924261115D-08
      .283226083217D-09  .100000000000D+01  .235500000000D+04  .000000000000D+00
      .240000000000D+01  .000000000000D+00 -.107102096081D-07  .117000000000D+03
      .444456000000D+06  .400000000000D+01
G04 2025 02 28 04 00 00  .533523503691D-03  .534328137292D-11  .000000000000D+00
      .390000000000D+02 -.125937500000D+03  .465519390751D-08  .420869858782D+00
     -.658817589283D-05  .326359213796D-02  .553391873837D-05  .515365718842D+04
      .446400000000D+06  .428408384323D-07 -.735437495089D+00  .335276126862D-07
      .967112054430D+00  .271812500000D+03 -.291600448885D+01 -.842177937234D-08
     -.634669293666D-09  .100000000000D+01  .235500000000D+04  .000000000000D+00
      .240000000000D+01  .000000000000D+00 -.465661287308D-08  .551000000000D+03
      .444456000000D+06  .400000000000D+01
G02 2025 02 28 04 00 00 -.231985934079D-03  .954969436862D-11  .000000000000D+00
      .550000000000D+02  .366250000000D+02  .418267422517D-08  .100140290980D+01
      .169686973095D-05  .162253605668D-01  .144485384226D-04  .515287888336D+04
      .446400000000D+06  .139698386192D-06 -.295155213567D+01 -.393018126488D-06
      .966541722651D+00  .105031250000D+03 -.102738638882D+01 -.791568686299D-08
     -.417874549009D-10  .100000000000D+01  .235500000000D+04  .000000000000D+00
      .240000000000D+01  .000000000000D+00 -.176951289177D-07  .550000000000D+02
      .444456000000D+06  .400000000000D+01
G01 2025 02 28 04 00 00  .147245824337D-03  .218278728426D-10  .000000000000D+00
      .960000000000D+02  .793750000000D+02  .427624955153D-08 -.695563199285D-01
      .409781932831D-05  .346394488588D-03  .142138451338D-04  .515374219322D+04
      .446400000000D+06  .149011611938D-07 -.278726425855D+01 -.558793544769D-08
      .960052267791D+00  .104843750000D+03 -.260486015545D+00 -.789068582159D-08
      .145006040084D-09  .100000000000D+01  .235500000000D+04  .000000000000D+00
      .240000000000D+01  .000000000000D+00 -.139698386192D-08  .864000000000D+03
      .444462000000D+06  .400000000000D+01
G14 2025 02 28 04 00 00  .606169924140D-03  .648014975013D-11  .000000000000D+00
      .112000000000D+03  .593437500000D+02  .521986028528D-08 -.285424744602D+01
      .310502946377D-05  .538257625885D-02  .551156699657D-05  .515370259476D+04
      .446400000000D+06 -.670552253723D-07  .134289749465D+01 -.558793544769D-07
      .943738351039D+00  .265593750000D+03 -.285688536088D+01 -.845749514576D-08
      .545737017852D-09  .100000000000D+01  .235500000000D+04  .000000000000D+00
      .240000000000D+01  .000000000000D+00 -.791624188423D-08  .112000000000D+03
      .444492000000D+06  .400000000000D+01
G17 2025 02 28 03 59 44  .403297599405D-03 -.194404492504D-10  .000000000000D+00
      .380000000000D+02 -.734062500000D+02  .471769651100D-08  .763765486127D+00
     -.389851629734D-05  .131547563942D-01  .749714672565D-05  .515363151360D+04
      .446384000000D+06 -.875443220139D-07  .242982249442D+01 -.227242708206D-06
      .964589672060D+00  .236437500000D+03 -.122796215956D+01 -.844463746733D-08
     -.576809740727D-09  .100000000000D+01  .235500000000D+04  .000000000000D+00
      .240000000000D+01  .000000000000D+00 -.107102096081D-07  .380000000000D+02
      .444528000000D+06  .400000000000D+01
